{
  "norad_id": 57510,
  "name": "STARLINK-30153",
  "history": [
    {
      "epoch": "2026-03-28T17:53:06.418752",
      "apogee_km": 484.2865790538008,
      "perigee_km": 481.8083192307704,
      "latitude_deg": -36.59268707602135,
      "longitude_deg": 2.5404652799479663,
      "semi_major_axis_km": 6861.184449142285,
      "eccentricity": 0.0001806,
      "inclination_deg": 42.9978,
      "raan_deg": 268.108,
      "arg_perigee_deg": 292.0631,
      "mean_anomaly_deg": 68.0029,
      "mean_motion_rev_day": 15.2758055
    },
    {
      "epoch": "2026-03-29T04:52:11.728992",
      "apogee_km": 484.03464711970173,
      "perigee_km": 482.03667364099874,
      "latitude_deg": -37.99715077835314,
      "longitude_deg": 46.479698879877105,
      "semi_major_axis_km": 6861.17266038035,
      "eccentricity": 0.0001456,
      "inclination_deg": 42.9999,
      "raan_deg": 265.5211,
      "arg_perigee_deg": 264.5551,
      "mean_anomaly_deg": 95.5135,
      "mean_motion_rev_day": 15.27584487
    }
  ]
}